<?xml version="1.0"?>
<gpx version="1.1"
creator="Viking 1.10 -- http://viking.sf.net/"
xmlns="http://www.topografix.com/GPX/1/1" xmlns:gpxx="http://www.garmin.com/xmlschemas/GpxExtensions/v3" xmlns:wptx1="http://www.garmin.com/xmlschemas/WaypointExtension/v1" xmlns:gpxtpx="http://www.garmin.com/xmlschemas/TrackPointExtension/v2" xmlns:gpxpx="http://www.garmin.com/xmlschemas/PowerExtension/v1" xmlns:xsi="http://www.w3.org/2001/XMLSchema-instance" xsi:schemaLocation="http://www.topografix.com/GPX/1/1 http://www.topografix.com/GPX/1/1/gpx.xsd http://www.garmin.com/xmlschemas/GpxExtensions/v3 http://www8.garmin.com/xmlschemas/GpxExtensionsv3.xsd http://www.garmin.com/xmlschemas/WaypointExtension/v1 http://www8.garmin.com/xmlschemas/WaypointExtensionv1.xsd http://www.garmin.com/xmlschemas/TrackPointExtension/v2 http://www.garmin.com/xmlschemas/TrackPointExtensionv2.xsd http://www.garmin.com/xmlschemas/PowerExtensionv1.xsd">
  <name>The_Aztec_treasure_house.kml</name>
  <metadata>
    <time>2024-08-27T17:48:26Z</time>
  </metadata>
<wpt lat="43.927423" lon="2.148255">
  <ele>0</ele>
  <name>Albi</name>
  <desc>&lt;a href=&quot;http://books.google.com/books?id=BKpZAAAAMAAJ&amp;amp;pg=PA266&amp;amp;hl=cs&amp;amp;vq=%22Albi%22&quot;&gt;Strana 266&lt;/a&gt;&lt;br&gt;In the French town of &lt;b&gt;Albi&lt;/b&gt; some Christians too wise for their own health had begun objecting to ecclesiastic corruption. &lt;b&gt;...&lt;/b&gt;&lt;br&gt;more pages:  &lt;a href=&quot;http://books.google.com/books?id=BKpZAAAAMAAJ&amp;amp;pg=PA266&amp;amp;hl=cs&amp;amp;vq=%22Albi%22&quot;&gt;Strana 266&lt;/a&gt;</desc>
</wpt>
<wpt lat="35.084444" lon="-106.650556">
  <ele>0</ele>
  <name>Albuquerque</name>
  <desc>&lt;a href=&quot;http://books.google.com/books?id=BKpZAAAAMAAJ&amp;amp;pg=PA458&amp;amp;hl=cs&amp;amp;vq=%22Albuquerque%22&quot;&gt;Strana 458&lt;/a&gt;&lt;br&gt;Eighty miles west of &lt;b&gt;Albuquerque&lt;/b&gt; a two-lane blacktop loops south from Interstate 40 and climbs through scrub evergreens to the Zuni reservation. &lt;b&gt;...&lt;/b&gt;&lt;br&gt;more pages:  &lt;a href=&quot;http://books.google.com/books?id=BKpZAAAAMAAJ&amp;amp;pg=PA458&amp;amp;hl=cs&amp;amp;vq=%22Albuquerque%22&quot;&gt;Strana 458&lt;/a&gt;</desc>
</wpt>
<wpt lat="52.373812" lon="4.89095">
  <ele>0</ele>
  <name>Amsterdam</name>
  <desc>&lt;a href=&quot;http://books.google.com/books?id=BKpZAAAAMAAJ&amp;amp;pg=PA330&amp;amp;hl=cs&amp;amp;vq=%22Amsterdam%22&quot;&gt;Strana 330&lt;/a&gt;&lt;br&gt;Off he went to &lt;b&gt;Amsterdam&lt;/b&gt; where he wrestled the burghers of the Dutch East India Company and emerged with a contract for one more attempt at Arctic &lt;b&gt;...&lt;/b&gt;&lt;br&gt;more pages:  &lt;a href=&quot;http://books.google.com/books?id=BKpZAAAAMAAJ&amp;amp;pg=PA330&amp;amp;hl=cs&amp;amp;vq=%22Amsterdam%22&quot;&gt;Strana 330&lt;/a&gt;</desc>
</wpt>
<wpt lat="24.079999" lon="32.919998">
  <ele>0</ele>
  <name>Aswan</name>
  <desc>&lt;a href=&quot;http://books.google.com/books?id=BKpZAAAAMAAJ&amp;amp;pg=PA169&amp;amp;hl=cs&amp;amp;vq=%22Aswan%22&quot;&gt;Strana 169&lt;/a&gt;&lt;br&gt;Below Alexandria lay the town of Syene, the modern &lt;b&gt;Aswan&lt;/b&gt;. At noon on the longest day of the year the sun&amp;#39;s rays illuminated a deep well at Syene, &lt;b&gt;...&lt;/b&gt;&lt;br&gt;more pages:  &lt;a href=&quot;http://books.google.com/books?id=BKpZAAAAMAAJ&amp;amp;pg=PA169&amp;amp;hl=cs&amp;amp;vq=%22Aswan%22&quot;&gt;Strana 169&lt;/a&gt;</desc>
</wpt>
<wpt lat="33.330001" lon="44.439998">
  <ele>0</ele>
  <name>Baghdad</name>
  <desc>&lt;a href=&quot;http://books.google.com/books?id=BKpZAAAAMAAJ&amp;amp;pg=PA233&amp;amp;hl=cs&amp;amp;vq=%22Baghdad%22&quot;&gt;Strana 233&lt;/a&gt;&lt;br&gt;He crossed Arabia to the mouth of the Euphrates, paralleled the Tigris upstream past &lt;b&gt;Baghdad&lt;/b&gt; into Turkey, and returned to Mecca where he spent the &lt;b&gt;...&lt;/b&gt;&lt;br&gt;more pages:  &lt;a href=&quot;http://books.google.com/books?id=BKpZAAAAMAAJ&amp;amp;pg=PA233&amp;amp;hl=cs&amp;amp;vq=%22Baghdad%22&quot;&gt;Strana 233&lt;/a&gt;</desc>
</wpt>
<wpt lat="34.819999" lon="67.519996">
  <ele>0</ele>
  <name>Bamiyan</name>
  <desc>&lt;a href=&quot;http://books.google.com/books?id=BKpZAAAAMAAJ&amp;amp;pg=PA231&amp;amp;hl=cs&amp;amp;vq=%22Bamiyan%22&quot;&gt;Strana 231&lt;/a&gt;&lt;br&gt;Over the snowy Hindu Kush to &lt;b&gt;Bamiyan&lt;/b&gt; with its ten monasteries. By way of the Khyber Pass to Gandhara. Across the Indus gorges. &lt;b&gt;...&lt;/b&gt;&lt;br&gt;more pages:  &lt;a href=&quot;http://books.google.com/books?id=BKpZAAAAMAAJ&amp;amp;pg=PA231&amp;amp;hl=cs&amp;amp;vq=%22Bamiyan%22&quot;&gt;Strana 231&lt;/a&gt;</desc>
</wpt>
<wpt lat="41.387917" lon="2.169919">
  <ele>0</ele>
  <name>Barcelona</name>
  <desc>&lt;a href=&quot;http://books.google.com/books?id=BKpZAAAAMAAJ&amp;amp;pg=PA312&amp;amp;hl=cs&amp;amp;vq=%22Barcelona%22&quot;&gt;Strana 312&lt;/a&gt;&lt;br&gt;Before leaving on his second voyage Columbus traveled from &lt;b&gt;Barcelona&lt;/b&gt; completely across Spain to the shrine of the Holy Virgin of Guadalupe in the &lt;b&gt;...&lt;/b&gt;&lt;br&gt;more pages:  &lt;a href=&quot;http://books.google.com/books?id=BKpZAAAAMAAJ&amp;amp;pg=PA312&amp;amp;hl=cs&amp;amp;vq=%22Barcelona%22&quot;&gt;Strana 312&lt;/a&gt;</desc>
</wpt>
<wpt lat="10.05" lon="-69.300003">
  <ele>0</ele>
  <name>Barquisimeto</name>
  <desc>&lt;a href=&quot;http://books.google.com/books?id=BKpZAAAAMAAJ&amp;amp;pg=PA362&amp;amp;hl=cs&amp;amp;vq=%22Barquisimeto%22&quot;&gt;Strana 362&lt;/a&gt;&lt;br&gt;After executing a few more of his revolutionaries who did not sound enthusiastic enough Aguirre marched on &lt;b&gt;Barquisimeto&lt;/b&gt;, which he found deserted. &lt;b&gt;...&lt;/b&gt;&lt;br&gt;more pages:  &lt;a href=&quot;http://books.google.com/books?id=BKpZAAAAMAAJ&amp;amp;pg=PA362&amp;amp;hl=cs&amp;amp;vq=%22Barquisimeto%22&quot;&gt;Strana 362&lt;/a&gt;</desc>
</wpt>
<wpt lat="49.602915" lon="-87.958602">
  <ele>0</ele>
  <name>Beardmore, Ontario</name>
  <desc>&lt;a href=&quot;http://books.google.com/books?id=BKpZAAAAMAAJ&amp;amp;pg=PA78&amp;amp;hl=cs&amp;amp;vq=%22Beardmore,+Ontario%22&quot;&gt;Strana 78&lt;/a&gt;&lt;br&gt;They were found, according to one report, while dynamiting on a mining claim near &lt;b&gt;Beardmore, Ontario&lt;/b&gt;. But another report says they were retrieved from &lt;b&gt;...&lt;/b&gt;&lt;br&gt;more pages:  &lt;a href=&quot;http://books.google.com/books?id=BKpZAAAAMAAJ&amp;amp;pg=PA78&amp;amp;hl=cs&amp;amp;vq=%22Beardmore,+Ontario%22&quot;&gt;Strana 78&lt;/a&gt;</desc>
</wpt>
<wpt lat="52.523781" lon="13.411895">
  <ele>0</ele>
  <name>Berlin</name>
  <desc>&lt;a href=&quot;http://books.google.com/books?id=BKpZAAAAMAAJ&amp;amp;pg=PA201&amp;amp;hl=cs&amp;amp;vq=%22Berlin%22&quot;&gt;Strana 201&lt;/a&gt;&lt;br&gt;The Margrave of Brandenburg shepherded weeping members of his court to the top of a little hill in &lt;b&gt;Berlin&lt;/b&gt;. Et cetera. Again we might ask what happened &lt;b&gt;...&lt;/b&gt;&lt;br&gt;more pages:  &lt;a href=&quot;http://books.google.com/books?id=BKpZAAAAMAAJ&amp;amp;pg=PA201&amp;amp;hl=cs&amp;amp;vq=%22Berlin%22&quot;&gt;Strana 201&lt;/a&gt;</desc>
</wpt>
<wpt lat="4.63" lon="-74.089996">
  <ele>0</ele>
  <name>Bogota</name>
  <desc>&lt;a href=&quot;http://books.google.com/books?id=BKpZAAAAMAAJ&amp;amp;pg=PA346&amp;amp;hl=cs&amp;amp;vq=%22Bogota%22&quot;&gt;Strana 346&lt;/a&gt;&lt;br&gt;The Muisca Indians were one of the Chibcha tribes living in the highlands around &lt;b&gt;Bogota&lt;/b&gt;. They were sedentary farmers with no great authority or &lt;b&gt;...&lt;/b&gt;&lt;br&gt;more pages:  &lt;a href=&quot;http://books.google.com/books?id=BKpZAAAAMAAJ&amp;amp;pg=PA346&amp;amp;hl=cs&amp;amp;vq=%22Bogota%22&quot;&gt;Strana 346&lt;/a&gt;</desc>
</wpt>
<wpt lat="18.959999" lon="72.819999">
  <ele>0</ele>
  <name>Bombay</name>
  <desc>&lt;a href=&quot;http://books.google.com/books?id=BKpZAAAAMAAJ&amp;amp;pg=PA134&amp;amp;hl=cs&amp;amp;vq=%22Bombay%22&quot;&gt;Strana 134&lt;/a&gt;&lt;br&gt;At sixteen he joined the East India Company which shipped him to &lt;b&gt;Bombay&lt;/b&gt;. There he worked as paymaster of the first grenadiers,&lt;br&gt;more pages:  &lt;a href=&quot;http://books.google.com/books?id=BKpZAAAAMAAJ&amp;amp;pg=PA134&amp;amp;hl=cs&amp;amp;vq=%22Bombay%22&quot;&gt;Strana 134&lt;/a&gt;</desc>
</wpt>
<wpt lat="-15.779999" lon="-47.909999">
  <ele>0</ele>
  <name>Brasilia</name>
  <desc>&lt;a href=&quot;http://books.google.com/books?id=BKpZAAAAMAAJ&amp;amp;pg=PA144&amp;amp;hl=cs&amp;amp;vq=%22Brasilia%22&quot;&gt;Strana 144&lt;/a&gt;&lt;br&gt;They did not grow by chance, as most cities do; they were planned as deliberately as &lt;b&gt;Brasilia&lt;/b&gt; or Salt Lake City and are just as predictable. &lt;b&gt;...&lt;/b&gt;&lt;br&gt;more pages:  &lt;a href=&quot;http://books.google.com/books?id=BKpZAAAAMAAJ&amp;amp;pg=PA144&amp;amp;hl=cs&amp;amp;vq=%22Brasilia%22&quot;&gt;Strana 144&lt;/a&gt;</desc>
</wpt>
<wpt lat="40.636175" lon="17.938991">
  <ele>0</ele>
  <name>Brindisi</name>
  <desc>&lt;a href=&quot;http://books.google.com/books?id=BKpZAAAAMAAJ&amp;amp;pg=PA272&amp;amp;hl=cs&amp;amp;vq=%22Brindisi%22&quot;&gt;Strana 272&lt;/a&gt;&lt;br&gt;crossed the Alps at Saint Gotthard Pass, and like a swarm of dying locusts surged down the Italian coast through Ancona as far as &lt;b&gt;Brindisi&lt;/b&gt; in the heel &lt;b&gt;...&lt;/b&gt;&lt;br&gt;more pages:  &lt;a href=&quot;http://books.google.com/books?id=BKpZAAAAMAAJ&amp;amp;pg=PA272&amp;amp;hl=cs&amp;amp;vq=%22Brindisi%22&quot;&gt;Strana 272&lt;/a&gt;</desc>
</wpt>
<wpt lat="50.830001" lon="4.329999">
  <ele>0</ele>
  <name>Brussels</name>
  <desc>&lt;a href=&quot;http://books.google.com/books?id=BKpZAAAAMAAJ&amp;amp;pg=PA420&amp;amp;hl=cs&amp;amp;vq=%22Brussels%22&quot;&gt;Strana 420&lt;/a&gt;&lt;br&gt;And so spectacular were these conversions that he was invited to perform in &lt;b&gt;Brussels&lt;/b&gt; before Maximilian Emmanuel, governor of the Spanish Netherlands. &lt;b&gt;...&lt;/b&gt;&lt;br&gt;more pages:  &lt;a href=&quot;http://books.google.com/books?id=BKpZAAAAMAAJ&amp;amp;pg=PA420&amp;amp;hl=cs&amp;amp;vq=%22Brussels%22&quot;&gt;Strana 420&lt;/a&gt;</desc>
</wpt>
<wpt lat="42.34037" lon="-3.70383">
  <ele>0</ele>
  <name>Burgos</name>
  <desc>&lt;a href=&quot;http://books.google.com/books?id=BKpZAAAAMAAJ&amp;amp;pg=PA384&amp;amp;hl=cs&amp;amp;vq=%22Burgos%22&quot;&gt;Strana 384&lt;/a&gt;&lt;br&gt;wrote to somebody in &lt;b&gt;Burgos&lt;/b&gt;, and many wear silk clothing. &amp;quot;Of the richness of this country I do not write you because it is said to be so great that &lt;b&gt;...&lt;/b&gt;&lt;br&gt;more pages:  &lt;a href=&quot;http://books.google.com/books?id=BKpZAAAAMAAJ&amp;amp;pg=PA384&amp;amp;hl=cs&amp;amp;vq=%22Burgos%22&quot;&gt;Strana 384&lt;/a&gt;</desc>
</wpt>
<wpt lat="30.059999" lon="31.25">
  <ele>0</ele>
  <name>Cairo</name>
  <desc>&lt;a href=&quot;http://books.google.com/books?id=BKpZAAAAMAAJ&amp;amp;pg=PA130&amp;amp;hl=cs&amp;amp;vq=%22Cairo%22&quot;&gt;Strana 130&lt;/a&gt;&lt;br&gt;The stone was carted off to the Institut d&amp;#39;Egypte in &lt;b&gt;Cairo&lt;/b&gt;, which Napoleon had founded, where copies were made of the text and sent at once to France &lt;b&gt;...&lt;/b&gt;&lt;br&gt;more pages:  &lt;a href=&quot;http://books.google.com/books?id=BKpZAAAAMAAJ&amp;amp;pg=PA130&amp;amp;hl=cs&amp;amp;vq=%22Cairo%22&quot;&gt;Strana 130&lt;/a&gt;</desc>
</wpt>
<wpt lat="4.96" lon="8.31">
  <ele>0</ele>
  <name>Calabar</name>
  <desc>&lt;a href=&quot;http://books.google.com/books?id=BKpZAAAAMAAJ&amp;amp;pg=PA239&amp;amp;hl=cs&amp;amp;vq=%22Calabar%22&quot;&gt;Strana 239&lt;/a&gt;&lt;br&gt;visited the Fjort tribe along the Congo, then marched and paddled in a northerly direction until she emerged at the old city of &lt;b&gt;Calabar&lt;/b&gt;. &lt;b&gt;...&lt;/b&gt;&lt;br&gt;more pages:  &lt;a href=&quot;http://books.google.com/books?id=BKpZAAAAMAAJ&amp;amp;pg=PA239&amp;amp;hl=cs&amp;amp;vq=%22Calabar%22&quot;&gt;Strana 239&lt;/a&gt;</desc>
</wpt>
<wpt lat="52.202544" lon="0.131236">
  <ele>0</ele>
  <name>Cambridge</name>
  <desc>&lt;a href=&quot;http://books.google.com/books?id=BKpZAAAAMAAJ&amp;amp;pg=PA141&amp;amp;hl=cs&amp;amp;vq=%22Cambridge%22&quot;&gt;Strana 141&lt;/a&gt;&lt;br&gt;making more progress than the professionals, and some of his notes were handed along to a young &lt;b&gt;Cambridge&lt;/b&gt; philologist, John Chadwick. &lt;b&gt;...&lt;/b&gt;&lt;br&gt;more pages:  &lt;a href=&quot;http://books.google.com/books?id=BKpZAAAAMAAJ&amp;amp;pg=PA141&amp;amp;hl=cs&amp;amp;vq=%22Cambridge%22&quot;&gt;Strana 141&lt;/a&gt;</desc>
</wpt>
<wpt lat="37.605651" lon="-0.991293">
  <ele>0</ele>
  <name>Cartagena</name>
  <desc>&lt;a href=&quot;http://books.google.com/books?id=BKpZAAAAMAAJ&amp;amp;pg=PA355&amp;amp;hl=cs&amp;amp;vq=%22Cartagena%22&quot;&gt;Strana 355&lt;/a&gt;&lt;br&gt;No matter who was responsible, Belalcdzar was ordered back to Spain, but at &lt;b&gt;Cartagena&lt;/b&gt; he fell sick and died. Some member of the party bought a length &lt;b&gt;...&lt;/b&gt;&lt;br&gt;more pages:  &lt;a href=&quot;http://books.google.com/books?id=BKpZAAAAMAAJ&amp;amp;pg=PA355&amp;amp;hl=cs&amp;amp;vq=%22Cartagena%22&quot;&gt;Strana 355&lt;/a&gt;</desc>
</wpt>
<wpt lat="41.85" lon="-87.65">
  <ele>0</ele>
  <name>Chicago</name>
  <desc>&lt;a href=&quot;http://books.google.com/books?id=BKpZAAAAMAAJ&amp;amp;pg=PA185&amp;amp;hl=cs&amp;amp;vq=%22Chicago%22&quot;&gt;Strana 185&lt;/a&gt;&lt;br&gt;Although I once knew a man in &lt;b&gt;Chicago&lt;/b&gt; who had an impressive collection of walrus and whale penises, which proves that just about anything will appeal &lt;b&gt;...&lt;/b&gt;&lt;br&gt;more pages:  &lt;a href=&quot;http://books.google.com/books?id=BKpZAAAAMAAJ&amp;amp;pg=PA185&amp;amp;hl=cs&amp;amp;vq=%22Chicago%22&quot;&gt;Strana 185&lt;/a&gt;</desc>
</wpt>
<wpt lat="50.940664" lon="6.959911">
  <ele>0</ele>
  <name>Cologne</name>
  <desc>&lt;a href=&quot;http://books.google.com/books?id=BKpZAAAAMAAJ&amp;amp;pg=PA271&amp;amp;hl=cs&amp;amp;vq=%22Cologne%22&quot;&gt;Strana 271&lt;/a&gt;&lt;br&gt;Traveling through the countryside they might forage enough to keep themselves alive, but they could not camp day after day in the streets of &lt;b&gt;Cologne&lt;/b&gt;. &lt;b&gt;...&lt;/b&gt;&lt;br&gt;more pages:  &lt;a href=&quot;http://books.google.com/books?id=BKpZAAAAMAAJ&amp;amp;pg=PA271&amp;amp;hl=cs&amp;amp;vq=%22Cologne%22&quot;&gt;Strana 271&lt;/a&gt;</desc>
</wpt>
<wpt lat="55.68" lon="12.569999">
  <ele>0</ele>
  <name>Copenhagen</name>
  <desc>&lt;a href=&quot;http://books.google.com/books?id=BKpZAAAAMAAJ&amp;amp;pg=PA44&amp;amp;hl=cs&amp;amp;vq=%22Copenhagen%22&quot;&gt;Strana 44&lt;/a&gt;&lt;br&gt;Now in &lt;b&gt;Copenhagen&lt;/b&gt;, in the basement of that peculiar Edwardian museum known as the Glyptothek, are several bona fide Etruscan figures: a shattered &lt;b&gt;...&lt;/b&gt;&lt;br&gt;more pages:  &lt;a href=&quot;http://books.google.com/books?id=BKpZAAAAMAAJ&amp;amp;pg=PA44&amp;amp;hl=cs&amp;amp;vq=%22Copenhagen%22&quot;&gt;Strana 44&lt;/a&gt;</desc>
</wpt>
<wpt lat="24.799999" lon="-107.389999">
  <ele>0</ele>
  <name>Culiacan</name>
  <desc>&lt;a href=&quot;http://books.google.com/books?id=BKpZAAAAMAAJ&amp;amp;pg=PA390&amp;amp;hl=cs&amp;amp;vq=%22Culiacan%22&quot;&gt;Strana 390&lt;/a&gt;&lt;br&gt;That autumn Coronado led what remained of his army across the deserts and mountains into Sinaloa where, at &lt;b&gt;Culiacan&lt;/b&gt;, it was disbanded. &lt;b&gt;...&lt;/b&gt;&lt;br&gt;more pages:  &lt;a href=&quot;http://books.google.com/books?id=BKpZAAAAMAAJ&amp;amp;pg=PA390&amp;amp;hl=cs&amp;amp;vq=%22Culiacan%22&quot;&gt;Strana 390&lt;/a&gt;</desc>
</wpt>
<wpt lat="33.5" lon="36.319999">
  <ele>0</ele>
  <name>Damascus</name>
  <desc>&lt;a href=&quot;http://books.google.com/books?id=BKpZAAAAMAAJ&amp;amp;pg=PA276&amp;amp;hl=cs&amp;amp;vq=%22Damascus%22&quot;&gt;Strana 276&lt;/a&gt;&lt;br&gt;Consequently we have no idea if he drowned in the surf at Accipitrum, or was beheaded at &lt;b&gt;Damascus&lt;/b&gt;, or spent his life in the fields near Alexandria, &lt;b&gt;...&lt;/b&gt;&lt;br&gt;more pages:  &lt;a href=&quot;http://books.google.com/books?id=BKpZAAAAMAAJ&amp;amp;pg=PA276&amp;amp;hl=cs&amp;amp;vq=%22Damascus%22&quot;&gt;Strana 276&lt;/a&gt;</desc>
</wpt>
<wpt lat="36.979999" lon="66.819999">
  <ele>0</ele>
  <name>Dawlatabad</name>
  <desc>&lt;a href=&quot;http://books.google.com/books?id=BKpZAAAAMAAJ&amp;amp;pg=PA234&amp;amp;hl=cs&amp;amp;vq=%22Dawlatabad%22&quot;&gt;Strana 234&lt;/a&gt;&lt;br&gt;mangonel &#x2014; a military device ordinarily used for catapulting stones &#x2014; and a blind man whom the sultan ordered to be dragged from Delhi to &lt;b&gt;Dawlatabad&lt;/b&gt;. &lt;b&gt;...&lt;/b&gt;&lt;br&gt;more pages:  &lt;a href=&quot;http://books.google.com/books?id=BKpZAAAAMAAJ&amp;amp;pg=PA234&amp;amp;hl=cs&amp;amp;vq=%22Dawlatabad%22&quot;&gt;Strana 234&lt;/a&gt;</desc>
</wpt>
<wpt lat="28.67" lon="77.209999">
  <ele>0</ele>
  <name>Delhi</name>
  <desc>&lt;a href=&quot;http://books.google.com/books?id=BKpZAAAAMAAJ&amp;amp;pg=PA235&amp;amp;hl=cs&amp;amp;vq=%22Delhi%22&quot;&gt;Strana 235&lt;/a&gt;&lt;br&gt;Some say it continued on its way, others think the cavalcade retreated to &lt;b&gt;Delhi&lt;/b&gt; where Tughlaq overhauled it and started his ambassadors off a second &lt;b&gt;...&lt;/b&gt;&lt;br&gt;more pages:  &lt;a href=&quot;http://books.google.com/books?id=BKpZAAAAMAAJ&amp;amp;pg=PA235&amp;amp;hl=cs&amp;amp;vq=%22Delhi%22&quot;&gt;Strana 235&lt;/a&gt;</desc>
</wpt>
<wpt lat="-6.619999" lon="-35.639999">
  <ele>0</ele>
  <name>Dona Ines</name>
  <desc>&lt;a href=&quot;http://books.google.com/books?id=BKpZAAAAMAAJ&amp;amp;pg=PA360&amp;amp;hl=cs&amp;amp;vq=%22Dona+Ines%22&quot;&gt;Strana 360&lt;/a&gt;&lt;br&gt;in 1641, says that &lt;b&gt;Dona Ines&lt;/b&gt; and a mutineer, &amp;quot;thinking they had a favorable occasion to satisfy their Lust and Ambition together,&amp;quot; organized the &lt;b&gt;...&lt;/b&gt;&lt;br&gt;more pages:  &lt;a href=&quot;http://books.google.com/books?id=BKpZAAAAMAAJ&amp;amp;pg=PA360&amp;amp;hl=cs&amp;amp;vq=%22Dona+Ines%22&quot;&gt;Strana 360&lt;/a&gt;</desc>
</wpt>
<wpt lat="31.758611" lon="-106.486389">
  <ele>0</ele>
  <name>El Paso</name>
  <desc>&lt;a href=&quot;http://books.google.com/books?id=BKpZAAAAMAAJ&amp;amp;pg=PA378&amp;amp;hl=cs&amp;amp;vq=%22El+Paso%22&quot;&gt;Strana 378&lt;/a&gt;&lt;br&gt;through the middle of Texas to the Pecos River, which they followed up into New Mexico, south to &lt;b&gt;El Paso&lt;/b&gt;, and west to the Gila River in Arizona. &lt;b&gt;...&lt;/b&gt;&lt;br&gt;more pages:  &lt;a href=&quot;http://books.google.com/books?id=BKpZAAAAMAAJ&amp;amp;pg=PA378&amp;amp;hl=cs&amp;amp;vq=%22El+Paso%22&quot;&gt;Strana 378&lt;/a&gt;</desc>
</wpt>
<wpt lat="-5.78" lon="-43.25">
  <ele>0</ele>
  <name>Estreito</name>
  <desc>&lt;a href=&quot;http://books.google.com/books?id=BKpZAAAAMAAJ&amp;amp;pg=PA375&amp;amp;hl=cs&amp;amp;vq=%22Estreito%22&quot;&gt;Strana 375&lt;/a&gt;&lt;br&gt;Dulmo went into partnership with a wealthy gentleman from Madeira named &lt;b&gt;Estreito&lt;/b&gt;, each of them to provide a caravel. &lt;b&gt;...&lt;/b&gt;&lt;br&gt;more pages:  &lt;a href=&quot;http://books.google.com/books?id=BKpZAAAAMAAJ&amp;amp;pg=PA375&amp;amp;hl=cs&amp;amp;vq=%22Estreito%22&quot;&gt;Strana 375&lt;/a&gt;</desc>
</wpt>
<wpt lat="44.837855" lon="11.620412">
  <ele>0</ele>
  <name>Ferrara</name>
  <desc>&lt;a href=&quot;http://books.google.com/books?id=BKpZAAAAMAAJ&amp;amp;pg=PA425&amp;amp;hl=cs&amp;amp;vq=%22Ferrara%22&quot;&gt;Strana 425&lt;/a&gt;&lt;br&gt;The great teachers were known to be in Italy, so he went to &lt;b&gt;Ferrara&lt;/b&gt; but his studies were interrupted by war. He fled south and became an army surgeon. &lt;b&gt;...&lt;/b&gt;&lt;br&gt;more pages:  &lt;a href=&quot;http://books.google.com/books?id=BKpZAAAAMAAJ&amp;amp;pg=PA425&amp;amp;hl=cs&amp;amp;vq=%22Ferrara%22&quot;&gt;Strana 425&lt;/a&gt;</desc>
</wpt>
<wpt lat="35.198056" lon="-111.650556">
  <ele>0</ele>
  <name>Flagstaff</name>
  <desc>&lt;a href=&quot;http://books.google.com/books?id=BKpZAAAAMAAJ&amp;amp;pg=PA210&amp;amp;hl=cs&amp;amp;vq=%22Flagstaff%22&quot;&gt;Strana 210&lt;/a&gt;&lt;br&gt;One does not associate the Lowells of Massachusetts with &lt;b&gt;Flagstaff&lt;/b&gt;, a place where a cowboy is not apt to remove his Stetson while having lunch, &lt;b&gt;...&lt;/b&gt;&lt;br&gt;more pages:  &lt;a href=&quot;http://books.google.com/books?id=BKpZAAAAMAAJ&amp;amp;pg=PA210&amp;amp;hl=cs&amp;amp;vq=%22Flagstaff%22&quot;&gt;Strana 210&lt;/a&gt;</desc>
</wpt>
<wpt lat="44.407061" lon="8.933989">
  <ele>0</ele>
  <name>Genoa</name>
  <desc>&lt;a href=&quot;http://books.google.com/books?id=BKpZAAAAMAAJ&amp;amp;pg=PA305&amp;amp;hl=cs&amp;amp;vq=%22Genoa%22&quot;&gt;Strana 305&lt;/a&gt;&lt;br&gt;He was born and grew up in &lt;b&gt;Genoa&lt;/b&gt;, as practically everybody agrees; but how he got from &lt;b&gt;Genoa&lt;/b&gt; to Lisbon has been disputed. &lt;b&gt;...&lt;/b&gt;&lt;br&gt;more pages:  &lt;a href=&quot;http://books.google.com/books?id=BKpZAAAAMAAJ&amp;amp;pg=PA305&amp;amp;hl=cs&amp;amp;vq=%22Genoa%22&quot;&gt;Strana 305&lt;/a&gt;</desc>
</wpt>
<wpt lat="36.139999" lon="-5.349999">
  <ele>0</ele>
  <name>Gibraltar</name>
  <desc>&lt;a href=&quot;http://books.google.com/books?id=BKpZAAAAMAAJ&amp;amp;pg=PA260&amp;amp;hl=cs&amp;amp;vq=%22Gibraltar%22&quot;&gt;Strana 260&lt;/a&gt;&lt;br&gt;Atlantis lay outside &lt;b&gt;Gibraltar&lt;/b&gt;, just where Plato said it was, and the West Indies are what remains of Antillia. These two vast islands did not &lt;b&gt;...&lt;/b&gt;&lt;br&gt;more pages:  &lt;a href=&quot;http://books.google.com/books?id=BKpZAAAAMAAJ&amp;amp;pg=PA260&amp;amp;hl=cs&amp;amp;vq=%22Gibraltar%22&quot;&gt;Strana 260&lt;/a&gt;</desc>
</wpt>
<wpt lat="30.005556" lon="-90.413889">
  <ele>0</ele>
  <name>Good Hope, Louisiana</name>
  <desc>&lt;a href=&quot;http://books.google.com/books?id=BKpZAAAAMAAJ&amp;amp;pg=PA217&amp;amp;hl=cs&amp;amp;vq=%22Good+Hope,+Louisiana%22&quot;&gt;Strana 217&lt;/a&gt;&lt;br&gt;According to the brochure he was born in 1898 in Saint Mary Parish in the town of &lt;b&gt;Good Hope, Louisiana&lt;/b&gt;. He was the eldest of eight children. &lt;b&gt;...&lt;/b&gt;&lt;br&gt;more pages:  &lt;a href=&quot;http://books.google.com/books?id=BKpZAAAAMAAJ&amp;amp;pg=PA217&amp;amp;hl=cs&amp;amp;vq=%22Good+Hope,+Louisiana%22&quot;&gt;Strana 217&lt;/a&gt;</desc>
</wpt>
<wpt lat="37.176452" lon="-3.597992">
  <ele>0</ele>
  <name>Granada</name>
  <desc>&lt;a href=&quot;http://books.google.com/books?id=BKpZAAAAMAAJ&amp;amp;pg=PA386&amp;amp;hl=cs&amp;amp;vq=%22Granada%22&quot;&gt;Strana 386&lt;/a&gt;&lt;br&gt;Viceroy Mendoza would not be greatly pleased and Coronado could only hope that having the first of the Seven Cities renamed &lt;b&gt;Granada&lt;/b&gt; might placate him. &lt;b&gt;...&lt;/b&gt;&lt;br&gt;more pages:  &lt;a href=&quot;http://books.google.com/books?id=BKpZAAAAMAAJ&amp;amp;pg=PA386&amp;amp;hl=cs&amp;amp;vq=%22Granada%22&quot;&gt;Strana 386&lt;/a&gt;</desc>
</wpt>
<wpt lat="51.478769" lon="-0.010705">
  <ele>0</ele>
  <name>Greenwich</name>
  <desc>&lt;a href=&quot;http://books.google.com/books?id=BKpZAAAAMAAJ&amp;amp;pg=PA322&amp;amp;hl=cs&amp;amp;vq=%22Greenwich%22&quot;&gt;Strana 322&lt;/a&gt;&lt;br&gt;As they sailed down the Thames past &lt;b&gt;Greenwich&lt;/b&gt; they saw Elizabeth waving from a palace window. Before reaching Greenland they encountered such a storm &lt;b&gt;...&lt;/b&gt;&lt;br&gt;more pages:  &lt;a href=&quot;http://books.google.com/books?id=BKpZAAAAMAAJ&amp;amp;pg=PA322&amp;amp;hl=cs&amp;amp;vq=%22Greenwich%22&quot;&gt;Strana 322&lt;/a&gt;</desc>
</wpt>
<wpt lat="20.67" lon="-103.349998">
  <ele>0</ele>
  <name>Guadalajara</name>
  <desc>&lt;a href=&quot;http://books.google.com/books?id=BKpZAAAAMAAJ&amp;amp;pg=PA409&amp;amp;hl=cs&amp;amp;vq=%22Guadalajara%22&quot;&gt;Strana 409&lt;/a&gt;&lt;br&gt;and that during the seventeenth century, according to church records in &lt;b&gt;Guadalajara&lt;/b&gt;, it produced millions of dollars worth of gold and silver. &lt;b&gt;...&lt;/b&gt;&lt;br&gt;more pages:  &lt;a href=&quot;http://books.google.com/books?id=BKpZAAAAMAAJ&amp;amp;pg=PA409&amp;amp;hl=cs&amp;amp;vq=%22Guadalajara%22&quot;&gt;Strana 409&lt;/a&gt;</desc>
</wpt>
<wpt lat="4.94" lon="-73.830001">
  <ele>0</ele>
  <name>Guatavita</name>
  <desc>&lt;a href=&quot;http://books.google.com/books?id=BKpZAAAAMAAJ&amp;amp;pg=PA351&amp;amp;hl=cs&amp;amp;vq=%22Guatavita%22&quot;&gt;Strana 351&lt;/a&gt;&lt;br&gt;They were shown the lake above &lt;b&gt;Guatavita&lt;/b&gt; and were told that here the story of a golden man had originated. Here, it was explained to them, &lt;b&gt;...&lt;/b&gt;&lt;br&gt;more pages:  &lt;a href=&quot;http://books.google.com/books?id=BKpZAAAAMAAJ&amp;amp;pg=PA351&amp;amp;hl=cs&amp;amp;vq=%22Guatavita%22&quot;&gt;Strana 351&lt;/a&gt;</desc>
</wpt>
<wpt lat="53.549839" lon="9.973259">
  <ele>0</ele>
  <name>Hamburg</name>
  <desc>&lt;a href=&quot;http://books.google.com/books?id=BKpZAAAAMAAJ&amp;amp;pg=PA417&amp;amp;hl=cs&amp;amp;vq=%22Hamburg%22&quot;&gt;Strana 417&lt;/a&gt;&lt;br&gt;Not long afterward he concocted gold in Offenbach, then in Cologne, then in &lt;b&gt;Hamburg&lt;/b&gt;, always in front of witnesses, some of whom were given gold &lt;b&gt;...&lt;/b&gt;&lt;br&gt;more pages:  &lt;a href=&quot;http://books.google.com/books?id=BKpZAAAAMAAJ&amp;amp;pg=PA417&amp;amp;hl=cs&amp;amp;vq=%22Hamburg%22&quot;&gt;Strana 417&lt;/a&gt;</desc>
</wpt>
<wpt lat="22.2833" lon="114.150001">
  <ele>0</ele>
  <name>Hong Kong</name>
  <desc>&lt;a href=&quot;http://books.google.com/books?id=BKpZAAAAMAAJ&amp;amp;pg=PA222&amp;amp;hl=cs&amp;amp;vq=%22Hong+Kong%22&quot;&gt;Strana 222&lt;/a&gt;&lt;br&gt;Early in February the Sea Dragon left &lt;b&gt;Hong Kong&lt;/b&gt;. Two days out during a storm one of the crewmen fell down a hatch and broke an ankle. &lt;b&gt;...&lt;/b&gt;&lt;br&gt;more pages:  &lt;a href=&quot;http://books.google.com/books?id=BKpZAAAAMAAJ&amp;amp;pg=PA222&amp;amp;hl=cs&amp;amp;vq=%22Hong+Kong%22&quot;&gt;Strana 222&lt;/a&gt;</desc>
</wpt>
<wpt lat="28.511667" lon="-96.486944">
  <ele>0</ele>
  <name>Indianola, Texas</name>
  <desc>&lt;a href=&quot;http://books.google.com/books?id=BKpZAAAAMAAJ&amp;amp;pg=PA457&amp;amp;hl=cs&amp;amp;vq=%22Indianola,+Texas%22&quot;&gt;Strana 457&lt;/a&gt;&lt;br&gt;By one account, the beasts were assembled at Smyrna and shipped to &lt;b&gt;Indianola, Texas&lt;/b&gt;, for training. In any event, twenty-five camels under the command &lt;b&gt;...&lt;/b&gt;&lt;br&gt;more pages:  &lt;a href=&quot;http://books.google.com/books?id=BKpZAAAAMAAJ&amp;amp;pg=PA457&amp;amp;hl=cs&amp;amp;vq=%22Indianola,+Texas%22&quot;&gt;Strana 457&lt;/a&gt;</desc>
</wpt>
<wpt lat="48.762145" lon="11.42539">
  <ele>0</ele>
  <name>Ingolstadt</name>
  <desc>&lt;a href=&quot;http://books.google.com/books?id=BKpZAAAAMAAJ&amp;amp;pg=PA425&amp;amp;hl=cs&amp;amp;vq=%22Ingolstadt%22&quot;&gt;Strana 425&lt;/a&gt;&lt;br&gt;Nor did &lt;b&gt;Ingolstadt&lt;/b&gt; please him; the lessons were unimaginative. At Cologne the instruction was obscure. In 1509, aged sixteen, he enrolled at the &lt;b&gt;...&lt;/b&gt;&lt;br&gt;more pages:  &lt;a href=&quot;http://books.google.com/books?id=BKpZAAAAMAAJ&amp;amp;pg=PA425&amp;amp;hl=cs&amp;amp;vq=%22Ingolstadt%22&quot;&gt;Strana 425&lt;/a&gt;</desc>
</wpt>
<wpt lat="31.78" lon="35.220001">
  <ele>0</ele>
  <name>Jerusalem</name>
  <desc>&lt;a href=&quot;http://books.google.com/books?id=BKpZAAAAMAAJ&amp;amp;pg=PA272&amp;amp;hl=cs&amp;amp;vq=%22Jerusalem%22&quot;&gt;Strana 272&lt;/a&gt;&lt;br&gt;asking that his regiment be allowed to stay within the walls overnight, saying that next morning when the sea divided he would march on to &lt;b&gt;Jerusalem&lt;/b&gt;. &lt;b&gt;...&lt;/b&gt;&lt;br&gt;more pages:  &lt;a href=&quot;http://books.google.com/books?id=BKpZAAAAMAAJ&amp;amp;pg=PA272&amp;amp;hl=cs&amp;amp;vq=%22Jerusalem%22&quot;&gt;Strana 272&lt;/a&gt;</desc>
</wpt>
<wpt lat="34.380001" lon="47.060001">
  <ele>0</ele>
  <name>Kermanshah</name>
  <desc>&lt;a href=&quot;http://books.google.com/books?id=BKpZAAAAMAAJ&amp;amp;pg=PA135&amp;amp;hl=cs&amp;amp;vq=%22Kermanshah%22&quot;&gt;Strana 135&lt;/a&gt;&lt;br&gt;When the Afghan Wars seemed about to erupt he was dispatched to &lt;b&gt;Kermanshah&lt;/b&gt; because of his linguistic skill. Here he learned of Behistun, twenty miles &lt;b&gt;...&lt;/b&gt;&lt;br&gt;more pages:  &lt;a href=&quot;http://books.google.com/books?id=BKpZAAAAMAAJ&amp;amp;pg=PA135&amp;amp;hl=cs&amp;amp;vq=%22Kermanshah%22&quot;&gt;Strana 135&lt;/a&gt;</desc>
</wpt>
<wpt lat="24.85" lon="79.93">
  <ele>0</ele>
  <name>Khajuraho</name>
  <desc>&lt;a href=&quot;http://books.google.com/books?id=BKpZAAAAMAAJ&amp;amp;pg=PA250&amp;amp;hl=cs&amp;amp;vq=%22Khajuraho%22&quot;&gt;Strana 250&lt;/a&gt;&lt;br&gt;He said she was like those Asiatic Indian dancers and courtesans on the twelfth-century temples of &lt;b&gt;Khajuraho&lt;/b&gt;, men and women both, with unnaturally &lt;b&gt;...&lt;/b&gt;&lt;br&gt;more pages:  &lt;a href=&quot;http://books.google.com/books?id=BKpZAAAAMAAJ&amp;amp;pg=PA250&amp;amp;hl=cs&amp;amp;vq=%22Khajuraho%22&quot;&gt;Strana 250&lt;/a&gt;</desc>
</wpt>
<wpt lat="6.449999" lon="3.47">
  <ele>0</ele>
  <name>Lagos</name>
  <desc>&lt;a href=&quot;http://books.google.com/books?id=BKpZAAAAMAAJ&amp;amp;pg=PA305&amp;amp;hl=cs&amp;amp;vq=%22Lagos%22&quot;&gt;Strana 305&lt;/a&gt;&lt;br&gt;Probably as a seaman aboard an armed merchant ship that was attacked and sunk near &lt;b&gt;Lagos&lt;/b&gt;. By some accounts he swam to shore while clutching a piece of &lt;b&gt;...&lt;/b&gt;&lt;br&gt;more pages:  &lt;a href=&quot;http://books.google.com/books?id=BKpZAAAAMAAJ&amp;amp;pg=PA305&amp;amp;hl=cs&amp;amp;vq=%22Lagos%22&quot;&gt;Strana 305&lt;/a&gt;</desc>
</wpt>
<wpt lat="42.600224" lon="-5.570733">
  <ele>0</ele>
  <name>Leon</name>
  <desc>&lt;a href=&quot;http://books.google.com/books?id=BKpZAAAAMAAJ&amp;amp;pg=PA318&amp;amp;hl=cs&amp;amp;vq=%22Leon%22&quot;&gt;Strana 318&lt;/a&gt;&lt;br&gt;Balboa entered the water with a naked sword in his hand and took possession of it, with all its coasts and bays, for the crowns of Castile and &lt;b&gt;Leon&lt;/b&gt;. &lt;b&gt;...&lt;/b&gt;&lt;br&gt;more pages:  &lt;a href=&quot;http://books.google.com/books?id=BKpZAAAAMAAJ&amp;amp;pg=PA318&amp;amp;hl=cs&amp;amp;vq=%22Leon%22&quot;&gt;Strana 318&lt;/a&gt;</desc>
</wpt>
<wpt lat="38.720001" lon="-9.14">
  <ele>0</ele>
  <name>Lisbon</name>
  <desc>&lt;a href=&quot;http://books.google.com/books?id=BKpZAAAAMAAJ&amp;amp;pg=PA374&amp;amp;hl=cs&amp;amp;vq=%22Lisbon%22&quot;&gt;Strana 374&lt;/a&gt;&lt;br&gt;In &lt;b&gt;Lisbon&lt;/b&gt; they found out that the sand was streaked with gold. Now you might think Captain Leone returned at once, either because of the gold or &lt;b&gt;...&lt;/b&gt;&lt;br&gt;more pages:  &lt;a href=&quot;http://books.google.com/books?id=BKpZAAAAMAAJ&amp;amp;pg=PA374&amp;amp;hl=cs&amp;amp;vq=%22Lisbon%22&quot;&gt;Strana 374&lt;/a&gt;</desc>
</wpt>
<wpt lat="51.500197" lon="-0.126197">
  <ele>0</ele>
  <name>London</name>
  <desc>&lt;a href=&quot;http://books.google.com/books?id=BKpZAAAAMAAJ&amp;amp;pg=PA99&amp;amp;hl=cs&amp;amp;vq=%22London%22&quot;&gt;Strana 99&lt;/a&gt;&lt;br&gt;Three of the five eggs at last reached the Natural History Museum in &lt;b&gt;London&lt;/b&gt; where they were accepted and studied with no particular excitement. &lt;b&gt;...&lt;/b&gt;&lt;br&gt;more pages:  &lt;a href=&quot;http://books.google.com/books?id=BKpZAAAAMAAJ&amp;amp;pg=PA99&amp;amp;hl=cs&amp;amp;vq=%22London%22&quot;&gt;Strana 99&lt;/a&gt;</desc>
</wpt>
<wpt lat="34.052222" lon="-118.242778">
  <ele>0</ele>
  <name>Los Angeles</name>
  <desc>&lt;a href=&quot;http://books.google.com/books?id=BKpZAAAAMAAJ&amp;amp;pg=PA127&amp;amp;hl=cs&amp;amp;vq=%22Los+Angeles%22&quot;&gt;Strana 127&lt;/a&gt;&lt;br&gt;Several years ago in &lt;b&gt;Los Angeles&lt;/b&gt; during the evening rush I was driving along Wilshire when a naked woman appeared on the sidewalk.&lt;br&gt;more pages:  &lt;a href=&quot;http://books.google.com/books?id=BKpZAAAAMAAJ&amp;amp;pg=PA127&amp;amp;hl=cs&amp;amp;vq=%22Los+Angeles%22&quot;&gt;Strana 127&lt;/a&gt;</desc>
</wpt>
<wpt lat="40.416712" lon="-3.70327">
  <ele>0</ele>
  <name>Madrid</name>
  <desc>&lt;a href=&quot;http://books.google.com/books?id=BKpZAAAAMAAJ&amp;amp;pg=PA287&amp;amp;hl=cs&amp;amp;vq=%22Madrid%22&quot;&gt;Strana 287&lt;/a&gt;&lt;br&gt;In &lt;b&gt;Madrid&lt;/b&gt; are three manuscript versions of this friar&amp;#39;s fabulous narrative. One of them has a drawing of John&amp;#39;s imperial banner: a Latin cross between &lt;b&gt;...&lt;/b&gt;&lt;br&gt;more pages:  &lt;a href=&quot;http://books.google.com/books?id=BKpZAAAAMAAJ&amp;amp;pg=PA287&amp;amp;hl=cs&amp;amp;vq=%22Madrid%22&quot;&gt;Strana 287&lt;/a&gt;</desc>
</wpt>
<wpt lat="14.619999" lon="120.970001">
  <ele>0</ele>
  <name>Manila</name>
  <desc>&lt;a href=&quot;http://books.google.com/books?id=BKpZAAAAMAAJ&amp;amp;pg=PA205&amp;amp;hl=cs&amp;amp;vq=%22Manila%22&quot;&gt;Strana 205&lt;/a&gt;&lt;br&gt;The sky above &lt;b&gt;Manila&lt;/b&gt; that day was perfect. Le Gentil cannot be blamed for the fact that in all those years he accomplished nothing. &lt;b&gt;...&lt;/b&gt;&lt;br&gt;more pages:  &lt;a href=&quot;http://books.google.com/books?id=BKpZAAAAMAAJ&amp;amp;pg=PA205&amp;amp;hl=cs&amp;amp;vq=%22Manila%22&quot;&gt;Strana 205&lt;/a&gt;</desc>
</wpt>
<wpt lat="43.298344" lon="5.383222">
  <ele>0</ele>
  <name>Marseilles</name>
  <desc>&lt;a href=&quot;http://books.google.com/books?id=BKpZAAAAMAAJ&amp;amp;pg=PA276&amp;amp;hl=cs&amp;amp;vq=%22Marseilles%22&quot;&gt;Strana 276&lt;/a&gt;&lt;br&gt;And by these accounts nobody else aboard the ships that left &lt;b&gt;Marseilles&lt;/b&gt; ever returned to Europe. Hugo Ferreus and William Porcus, after turning a nice &lt;b&gt;...&lt;/b&gt;&lt;br&gt;more pages:  &lt;a href=&quot;http://books.google.com/books?id=BKpZAAAAMAAJ&amp;amp;pg=PA276&amp;amp;hl=cs&amp;amp;vq=%22Marseilles%22&quot;&gt;Strana 276&lt;/a&gt;</desc>
</wpt>
<wpt lat="19.43" lon="-99.139999">
  <ele>0</ele>
  <name>Mexico City</name>
  <desc>&lt;a href=&quot;http://books.google.com/books?id=BKpZAAAAMAAJ&amp;amp;pg=PA380&amp;amp;hl=cs&amp;amp;vq=%22Mexico+City%22&quot;&gt;Strana 380&lt;/a&gt;&lt;br&gt;These towns were perhaps as big as &lt;b&gt;Mexico City&lt;/b&gt;, their streets crowded with silversmiths and goldsmiths. The number seven also occurred in Aztec legend &lt;b&gt;...&lt;/b&gt;&lt;br&gt;more pages:  &lt;a href=&quot;http://books.google.com/books?id=BKpZAAAAMAAJ&amp;amp;pg=PA380&amp;amp;hl=cs&amp;amp;vq=%22Mexico+City%22&quot;&gt;Strana 380&lt;/a&gt;</desc>
</wpt>
<wpt lat="-4.039999" lon="39.659999">
  <ele>0</ele>
  <name>Mombasa</name>
  <desc>&lt;a href=&quot;http://books.google.com/books?id=BKpZAAAAMAAJ&amp;amp;pg=PA233&amp;amp;hl=cs&amp;amp;vq=%22Mombasa%22&quot;&gt;Strana 233&lt;/a&gt;&lt;br&gt;The party stopped at Aden, crossed the equator and continued south to &lt;b&gt;Mombasa&lt;/b&gt; and Kilwa, turned around and sailed through the Indian Ocean to Oman and &lt;b&gt;...&lt;/b&gt;&lt;br&gt;more pages:  &lt;a href=&quot;http://books.google.com/books?id=BKpZAAAAMAAJ&amp;amp;pg=PA233&amp;amp;hl=cs&amp;amp;vq=%22Mombasa%22&quot;&gt;Strana 233&lt;/a&gt;</desc>
</wpt>
<wpt lat="36.600278" lon="-121.893611">
  <ele>0</ele>
  <name>Monterey</name>
  <desc>&lt;a href=&quot;http://books.google.com/books?id=BKpZAAAAMAAJ&amp;amp;pg=PA436&amp;amp;hl=cs&amp;amp;vq=%22Monterey%22&quot;&gt;Strana 436&lt;/a&gt;&lt;br&gt;If they go on searching for a route to &lt;b&gt;Monterey&lt;/b&gt; it is possible they will subject themselves to death by starvation, if not from cold. &lt;b&gt;...&lt;/b&gt;&lt;br&gt;more pages:  &lt;a href=&quot;http://books.google.com/books?id=BKpZAAAAMAAJ&amp;amp;pg=PA436&amp;amp;hl=cs&amp;amp;vq=%22Monterey%22&quot;&gt;Strana 436&lt;/a&gt;</desc>
</wpt>
<wpt lat="40.714167" lon="-74.006389">
  <ele>0</ele>
  <name>New York</name>
  <desc>&lt;a href=&quot;http://books.google.com/books?id=BKpZAAAAMAAJ&amp;amp;pg=PA161&amp;amp;hl=cs&amp;amp;vq=%22New+York%22&quot;&gt;Strana 161&lt;/a&gt;&lt;br&gt;ground was reasonably flat, the coast lay not far distant, and he thought he would not have much difficulty shipping the best monuments to &lt;b&gt;New York&lt;/b&gt;. &lt;b&gt;...&lt;/b&gt;&lt;br&gt;more pages:  &lt;a href=&quot;http://books.google.com/books?id=BKpZAAAAMAAJ&amp;amp;pg=PA161&amp;amp;hl=cs&amp;amp;vq=%22New+York%22&quot;&gt;Strana 161&lt;/a&gt;</desc>
</wpt>
<wpt lat="49.45052" lon="11.08048">
  <ele>0</ele>
  <name>Nuremberg</name>
  <desc>&lt;a href=&quot;http://books.google.com/books?id=BKpZAAAAMAAJ&amp;amp;pg=PA175&amp;amp;hl=cs&amp;amp;vq=%22Nuremberg%22&quot;&gt;Strana 175&lt;/a&gt;&lt;br&gt;De Revolutionibus was delivered to a &lt;b&gt;Nuremberg&lt;/b&gt; printer; and here, at &lt;b&gt;Nuremberg&lt;/b&gt;, we meet the Lutheran priest Andreas Osiander. &lt;b&gt;...&lt;/b&gt;&lt;br&gt;more pages:  &lt;a href=&quot;http://books.google.com/books?id=BKpZAAAAMAAJ&amp;amp;pg=PA175&amp;amp;hl=cs&amp;amp;vq=%22Nuremberg%22&quot;&gt;Strana 175&lt;/a&gt;</desc>
</wpt>
<wpt lat="17.069999" lon="-96.720001">
  <ele>0</ele>
  <name>Oaxaca</name>
  <desc>&lt;a href=&quot;http://books.google.com/books?id=BKpZAAAAMAAJ&amp;amp;pg=PA246&amp;amp;hl=cs&amp;amp;vq=%22Oaxaca%22&quot;&gt;Strana 246&lt;/a&gt;&lt;br&gt;either in the swampy miasmic Gulf coast where it flourished and degenerated and disappeared, or 500 miles west among the ravines of &lt;b&gt;Oaxaca&lt;/b&gt; and on the &lt;b&gt;...&lt;/b&gt;&lt;br&gt;more pages:  &lt;a href=&quot;http://books.google.com/books?id=BKpZAAAAMAAJ&amp;amp;pg=PA246&amp;amp;hl=cs&amp;amp;vq=%22Oaxaca%22&quot;&gt;Strana 246&lt;/a&gt;</desc>
</wpt>
<wpt lat="41.258611" lon="-95.9375">
  <ele>0</ele>
  <name>Omaha</name>
  <desc>&lt;a href=&quot;http://books.google.com/books?id=BKpZAAAAMAAJ&amp;amp;pg=PA439&amp;amp;hl=cs&amp;amp;vq=%22Omaha%22&quot;&gt;Strana 439&lt;/a&gt;&lt;br&gt;territorial survey in the San Juan Mountains, and there he chanced to meet an old friend from &lt;b&gt;Omaha&lt;/b&gt; named Cooper who had gone prospecting with Moss. &lt;b&gt;...&lt;/b&gt;&lt;br&gt;more pages:  &lt;a href=&quot;http://books.google.com/books?id=BKpZAAAAMAAJ&amp;amp;pg=PA439&amp;amp;hl=cs&amp;amp;vq=%22Omaha%22&quot;&gt;Strana 439&lt;/a&gt;</desc>
</wpt>
<wpt lat="8.97" lon="-79.529998">
  <ele>0</ele>
  <name>Panama</name>
  <desc>&lt;a href=&quot;http://books.google.com/books?id=BKpZAAAAMAAJ&amp;amp;pg=PA314&amp;amp;hl=cs&amp;amp;vq=%22Panama%22&quot;&gt;Strana 314&lt;/a&gt;&lt;br&gt;Pedro Martir, describing Balboa&amp;#39;s trek across &lt;b&gt;Panama&lt;/b&gt;, states that the explorers encountered black men whom they believed to have come from Ethiopia on &lt;b&gt;...&lt;/b&gt;&lt;br&gt;more pages:  &lt;a href=&quot;http://books.google.com/books?id=BKpZAAAAMAAJ&amp;amp;pg=PA314&amp;amp;hl=cs&amp;amp;vq=%22Panama%22&quot;&gt;Strana 314&lt;/a&gt;</desc>
</wpt>
<wpt lat="48.856558" lon="2.350966">
  <ele>0</ele>
  <name>Paris</name>
  <desc>&lt;a href=&quot;http://books.google.com/books?id=BKpZAAAAMAAJ&amp;amp;pg=PA203&amp;amp;hl=cs&amp;amp;vq=%22Paris%22&quot;&gt;Strana 203&lt;/a&gt;&lt;br&gt;He therefore wrote to the French Academy in &lt;b&gt;Paris&lt;/b&gt; and explained his plan.&lt;br&gt;more pages:  &lt;a href=&quot;http://books.google.com/books?id=BKpZAAAAMAAJ&amp;amp;pg=PA203&amp;amp;hl=cs&amp;amp;vq=%22Paris%22&quot;&gt;Strana 203&lt;/a&gt;</desc>
</wpt>
<wpt lat="39.93" lon="116.400001">
  <ele>0</ele>
  <name>Peking</name>
  <desc>&lt;a href=&quot;http://books.google.com/books?id=BKpZAAAAMAAJ&amp;amp;pg=PA236&amp;amp;hl=cs&amp;amp;vq=%22Peking%22&quot;&gt;Strana 236&lt;/a&gt;&lt;br&gt;After a boring sea voyage he landed in southern China and journeyed north to &lt;b&gt;Peking&lt;/b&gt;. The Chinese concern for travelers impressed him; &lt;b&gt;...&lt;/b&gt;&lt;br&gt;more pages:  &lt;a href=&quot;http://books.google.com/books?id=BKpZAAAAMAAJ&amp;amp;pg=PA236&amp;amp;hl=cs&amp;amp;vq=%22Peking%22&quot;&gt;Strana 236&lt;/a&gt;</desc>
</wpt>
<wpt lat="11.939999" lon="79.830001">
  <ele>0</ele>
  <name>Pondicherry</name>
  <desc>&lt;a href=&quot;http://books.google.com/books?id=BKpZAAAAMAAJ&amp;amp;pg=PA203&amp;amp;hl=cs&amp;amp;vq=%22Pondicherry%22&quot;&gt;Strana 203&lt;/a&gt;&lt;br&gt;However, a French fleet was about to embark with the intention of liberating &lt;b&gt;Pondicherry&lt;/b&gt; and he obtained permission to sail on one of the gunboats. &lt;b&gt;...&lt;/b&gt;&lt;br&gt;more pages:  &lt;a href=&quot;http://books.google.com/books?id=BKpZAAAAMAAJ&amp;amp;pg=PA203&amp;amp;hl=cs&amp;amp;vq=%22Pondicherry%22&quot;&gt;Strana 203&lt;/a&gt;</desc>
</wpt>
<wpt lat="33.049999" lon="-16.319999">
  <ele>0</ele>
  <name>Porto Santo</name>
  <desc>&lt;a href=&quot;http://books.google.com/books?id=BKpZAAAAMAAJ&amp;amp;pg=PA305&amp;amp;hl=cs&amp;amp;vq=%22Porto+Santo%22&quot;&gt;Strana 305&lt;/a&gt;&lt;br&gt;It seldom hurts to be related, however distantly, to a king. They went to live on &lt;b&gt;Porto Santo&lt;/b&gt; where he continued to nourish his.&lt;br&gt;more pages:  &lt;a href=&quot;http://books.google.com/books?id=BKpZAAAAMAAJ&amp;amp;pg=PA305&amp;amp;hl=cs&amp;amp;vq=%22Porto+Santo%22&quot;&gt;Strana 305&lt;/a&gt;</desc>
</wpt>
<wpt lat="50.080001" lon="14.43">
  <ele>0</ele>
  <name>Prague</name>
  <desc>&lt;a href=&quot;http://books.google.com/books?id=BKpZAAAAMAAJ&amp;amp;pg=PA184&amp;amp;hl=cs&amp;amp;vq=%22Prague%22&quot;&gt;Strana 184&lt;/a&gt;&lt;br&gt;Brahe is linked to Kepler because they worked together for about a year at Benatky Castle near &lt;b&gt;Prague&lt;/b&gt;. Kepler then packed his bag and left, &lt;b&gt;...&lt;/b&gt;&lt;br&gt;more pages:  &lt;a href=&quot;http://books.google.com/books?id=BKpZAAAAMAAJ&amp;amp;pg=PA184&amp;amp;hl=cs&amp;amp;vq=%22Prague%22&quot;&gt;Strana 184&lt;/a&gt;</desc>
</wpt>
<wpt lat="38.254444" lon="-104.608611">
  <ele>0</ele>
  <name>Pueblo</name>
  <desc>&lt;a href=&quot;http://books.google.com/books?id=BKpZAAAAMAAJ&amp;amp;pg=PA387&amp;amp;hl=cs&amp;amp;vq=%22Pueblo%22&quot;&gt;Strana 387&lt;/a&gt;&lt;br&gt;Before leaving the Rfo Grande valley they picked up two more &lt;b&gt;Pueblo&lt;/b&gt; captives. One was named Xabe, a Pawnee, who said yes, yes, there was gold in &lt;b&gt;...&lt;/b&gt;&lt;br&gt;more pages:  &lt;a href=&quot;http://books.google.com/books?id=BKpZAAAAMAAJ&amp;amp;pg=PA387&amp;amp;hl=cs&amp;amp;vq=%22Pueblo%22&quot;&gt;Strana 387&lt;/a&gt;</desc>
</wpt>
<wpt lat="46.826562" lon="-71.30238">
  <ele>0</ele>
  <name>Quebec</name>
  <desc>&lt;a href=&quot;http://books.google.com/books?id=BKpZAAAAMAAJ&amp;amp;pg=PA155&amp;amp;hl=cs&amp;amp;vq=%22Quebec%22&quot;&gt;Strana 155&lt;/a&gt;&lt;br&gt;Upon being ordained he got himself shipped to the Sacred College of the Propaganda in &lt;b&gt;Quebec&lt;/b&gt; &#x2014; farther north than he wished, but at least it was the &lt;b&gt;...&lt;/b&gt;&lt;br&gt;more pages:  &lt;a href=&quot;http://books.google.com/books?id=BKpZAAAAMAAJ&amp;amp;pg=PA155&amp;amp;hl=cs&amp;amp;vq=%22Quebec%22&quot;&gt;Strana 155&lt;/a&gt;</desc>
</wpt>
<wpt lat="-0.189999" lon="-78.5">
  <ele>0</ele>
  <name>Quito</name>
  <desc>&lt;a href=&quot;http://books.google.com/books?id=BKpZAAAAMAAJ&amp;amp;pg=PA360&amp;amp;hl=cs&amp;amp;vq=%22Quito%22&quot;&gt;Strana 360&lt;/a&gt;&lt;br&gt;Esquivel fled to &lt;b&gt;Quito&lt;/b&gt;. Twenty days later Aguirre arrived. Esquivel fled to Cuzco, but presently Aguirre arrived, &amp;quot;having traveled on foot and without &lt;b&gt;...&lt;/b&gt;&lt;br&gt;more pages:  &lt;a href=&quot;http://books.google.com/books?id=BKpZAAAAMAAJ&amp;amp;pg=PA360&amp;amp;hl=cs&amp;amp;vq=%22Quito%22&quot;&gt;Strana 360&lt;/a&gt;</desc>
</wpt>
<wpt lat="49.016491" lon="12.100904">
  <ele>0</ele>
  <name>Regensburg</name>
  <desc>&lt;a href=&quot;http://books.google.com/books?id=BKpZAAAAMAAJ&amp;amp;pg=PA422&amp;amp;hl=cs&amp;amp;vq=%22Regensburg%22&quot;&gt;Strana 422&lt;/a&gt;&lt;br&gt;This was the alchemist Christopher Hauser, lately arrived from &lt;b&gt;Regensburg&lt;/b&gt;. . . . Hauser brought with him certain tools, which I recognized as being a &lt;b&gt;...&lt;/b&gt;&lt;br&gt;more pages:  &lt;a href=&quot;http://books.google.com/books?id=BKpZAAAAMAAJ&amp;amp;pg=PA422&amp;amp;hl=cs&amp;amp;vq=%22Regensburg%22&quot;&gt;Strana 422&lt;/a&gt;</desc>
</wpt>
<wpt lat="64.139999" lon="-21.92">
  <ele>0</ele>
  <name>Reykjavik</name>
  <desc>&lt;a href=&quot;http://books.google.com/books?id=BKpZAAAAMAAJ&amp;amp;pg=PA261&amp;amp;hl=cs&amp;amp;vq=%22Reykjavik%22&quot;&gt;Strana 261&lt;/a&gt;&lt;br&gt;Consequently, Atlantis will be found near Upsala or Heligoland or &lt;b&gt;Reykjavik&lt;/b&gt;, or in Britain or Jerusalem, or perhaps beneath the mud of the &lt;b&gt;...&lt;/b&gt;&lt;br&gt;more pages:  &lt;a href=&quot;http://books.google.com/books?id=BKpZAAAAMAAJ&amp;amp;pg=PA261&amp;amp;hl=cs&amp;amp;vq=%22Reykjavik%22&quot;&gt;Strana 261&lt;/a&gt;</desc>
</wpt>
<wpt lat="41.895466" lon="12.482323">
  <ele>0</ele>
  <name>Rome</name>
  <desc>&lt;a href=&quot;http://books.google.com/books?id=BKpZAAAAMAAJ&amp;amp;pg=PA9&amp;amp;hl=cs&amp;amp;vq=%22Rome%22&quot;&gt;Strana 9&lt;/a&gt;&lt;br&gt;A less agreeable picture came into focus at Monte Circeo, fifty miles south of &lt;b&gt;Rome&lt;/b&gt;. Laborers at a tourist resort were widening a terrace when they &lt;b&gt;...&lt;/b&gt;&lt;br&gt;more pages:  &lt;a href=&quot;http://books.google.com/books?id=BKpZAAAAMAAJ&amp;amp;pg=PA9&amp;amp;hl=cs&amp;amp;vq=%22Rome%22&quot;&gt;Strana 9&lt;/a&gt;</desc>
</wpt>
<wpt lat="49.442367" lon="1.098492">
  <ele>0</ele>
  <name>Rouen</name>
  <desc>&lt;a href=&quot;http://books.google.com/books?id=BKpZAAAAMAAJ&amp;amp;pg=PA355&amp;amp;hl=cs&amp;amp;vq=%22Rouen%22&quot;&gt;Strana 355&lt;/a&gt;&lt;br&gt;Some member of the party bought a length of &lt;b&gt;Rouen&lt;/b&gt; muslin for one peso and two reales. Another peso went to the woman who cut his shroud, &lt;b&gt;...&lt;/b&gt;&lt;br&gt;more pages:  &lt;a href=&quot;http://books.google.com/books?id=BKpZAAAAMAAJ&amp;amp;pg=PA355&amp;amp;hl=cs&amp;amp;vq=%22Rouen%22&quot;&gt;Strana 355&lt;/a&gt;</desc>
</wpt>
<wpt lat="-20.87" lon="55.459999">
  <ele>0</ele>
  <name>Saint-Denis</name>
  <desc>&lt;a href=&quot;http://books.google.com/books?id=BKpZAAAAMAAJ&amp;amp;pg=PA267&amp;amp;hl=cs&amp;amp;vq=%22Saint-Denis%22&quot;&gt;Strana 267&lt;/a&gt;&lt;br&gt;So it should be no surprise that Stephen collected an audience wherever he stopped, and it is probable that by the time he reached &lt;b&gt;Saint-Denis&lt;/b&gt; he &lt;b&gt;...&lt;/b&gt;&lt;br&gt;more pages:  &lt;a href=&quot;http://books.google.com/books?id=BKpZAAAAMAAJ&amp;amp;pg=PA267&amp;amp;hl=cs&amp;amp;vq=%22Saint-Denis%22&quot;&gt;Strana 267&lt;/a&gt;</desc>
</wpt>
<wpt lat="40.760833" lon="-111.890278">
  <ele>0</ele>
  <name>Salt Lake City</name>
  <desc>&lt;a href=&quot;http://books.google.com/books?id=BKpZAAAAMAAJ&amp;amp;pg=PA144&amp;amp;hl=cs&amp;amp;vq=%22Salt+Lake+City%22&quot;&gt;Strana 144&lt;/a&gt;&lt;br&gt;They did not grow by chance, as most cities do; they were planned as deliberately as Brasilia or &lt;b&gt;Salt Lake City&lt;/b&gt; and are just as predictable. &lt;b&gt;...&lt;/b&gt;&lt;br&gt;more pages:  &lt;a href=&quot;http://books.google.com/books?id=BKpZAAAAMAAJ&amp;amp;pg=PA144&amp;amp;hl=cs&amp;amp;vq=%22Salt+Lake+City%22&quot;&gt;Strana 144&lt;/a&gt;</desc>
</wpt>
<wpt lat="39.659999" lon="66.949996">
  <ele>0</ele>
  <name>Samarkand</name>
  <desc>&lt;a href=&quot;http://books.google.com/books?id=BKpZAAAAMAAJ&amp;amp;pg=PA234&amp;amp;hl=cs&amp;amp;vq=%22Samarkand%22&quot;&gt;Strana 234&lt;/a&gt;&lt;br&gt;Around the top of the Caspian and Aral Seas, down to &lt;b&gt;Samarkand&lt;/b&gt;, and so to the Indus, bordering the promised land. &lt;b&gt;...&lt;/b&gt;&lt;br&gt;more pages:  &lt;a href=&quot;http://books.google.com/books?id=BKpZAAAAMAAJ&amp;amp;pg=PA234&amp;amp;hl=cs&amp;amp;vq=%22Samarkand%22&quot;&gt;Strana 234&lt;/a&gt;</desc>
</wpt>
<wpt lat="37.775" lon="-122.418333">
  <ele>0</ele>
  <name>San Francisco</name>
  <desc>&lt;a href=&quot;http://books.google.com/books?id=BKpZAAAAMAAJ&amp;amp;pg=PA157&amp;amp;hl=cs&amp;amp;vq=%22San+Francisco%22&quot;&gt;Strana 157&lt;/a&gt;&lt;br&gt;Back to &lt;b&gt;San Francisco&lt;/b&gt;. Then to Peru where he wrote a book about the Incas, which nobody would publish, though he did break into print with a treatise &lt;b&gt;...&lt;/b&gt;&lt;br&gt;more pages:  &lt;a href=&quot;http://books.google.com/books?id=BKpZAAAAMAAJ&amp;amp;pg=PA157&amp;amp;hl=cs&amp;amp;vq=%22San+Francisco%22&quot;&gt;Strana 157&lt;/a&gt;</desc>
</wpt>
<wpt lat="18.468333" lon="-66.106111">
  <ele>0</ele>
  <name>San Juan</name>
  <desc>&lt;a href=&quot;http://books.google.com/books?id=BKpZAAAAMAAJ&amp;amp;pg=PA453&amp;amp;hl=cs&amp;amp;vq=%22San+Juan%22&quot;&gt;Strana 453&lt;/a&gt;&lt;br&gt;And it is considered very possible that some of these northern &lt;b&gt;San Juan&lt;/b&gt; people moved into Arizona, where they at first joined and later intermarried &lt;b&gt;...&lt;/b&gt;&lt;br&gt;more pages:  &lt;a href=&quot;http://books.google.com/books?id=BKpZAAAAMAAJ&amp;amp;pg=PA453&amp;amp;hl=cs&amp;amp;vq=%22San+Juan%22&quot;&gt;Strana 453&lt;/a&gt;</desc>
</wpt>
<wpt lat="4.769999" lon="-6.639999">
  <ele>0</ele>
  <name>San Pedro</name>
  <desc>&lt;a href=&quot;http://books.google.com/books?id=BKpZAAAAMAAJ&amp;amp;pg=PA357&amp;amp;hl=cs&amp;amp;vq=%22San+Pedro%22&quot;&gt;Strana 357&lt;/a&gt;&lt;br&gt;Then for two months Pizarro led his bewildered troops alongside the Coca while the brig &lt;b&gt;San Pedro&lt;/b&gt;, commanded by Francisco Orellana, &lt;b&gt;...&lt;/b&gt;&lt;br&gt;more pages:  &lt;a href=&quot;http://books.google.com/books?id=BKpZAAAAMAAJ&amp;amp;pg=PA357&amp;amp;hl=cs&amp;amp;vq=%22San+Pedro%22&quot;&gt;Strana 357&lt;/a&gt;</desc>
</wpt>
<wpt lat="13.689999" lon="-89.190002">
  <ele>0</ele>
  <name>San Salvador</name>
  <desc>&lt;a href=&quot;http://books.google.com/books?id=BKpZAAAAMAAJ&amp;amp;pg=PA308&amp;amp;hl=cs&amp;amp;vq=%22San+Salvador%22&quot;&gt;Strana 308&lt;/a&gt;&lt;br&gt;None of these, we are told by Samuel Eliot Morison, who explains that the natives of &lt;b&gt;San Salvador&lt;/b&gt; often build fires outside their houses on October &lt;b&gt;...&lt;/b&gt;&lt;br&gt;more pages:  &lt;a href=&quot;http://books.google.com/books?id=BKpZAAAAMAAJ&amp;amp;pg=PA308&amp;amp;hl=cs&amp;amp;vq=%22San+Salvador%22&quot;&gt;Strana 308&lt;/a&gt;</desc>
</wpt>
<wpt lat="18.479999" lon="-69.910003">
  <ele>0</ele>
  <name>Santo Domingo</name>
  <desc>&lt;a href=&quot;http://books.google.com/books?id=BKpZAAAAMAAJ&amp;amp;pg=PA312&amp;amp;hl=cs&amp;amp;vq=%22Santo+Domingo%22&quot;&gt;Strana 312&lt;/a&gt;&lt;br&gt;He bore a little south of his previous track and had an easy crossing to &lt;b&gt;Santo Domingo&lt;/b&gt;. Here he turned north and on Guadalupe &#x2014; named for the &lt;b&gt;...&lt;/b&gt;&lt;br&gt;more pages:  &lt;a href=&quot;http://books.google.com/books?id=BKpZAAAAMAAJ&amp;amp;pg=PA312&amp;amp;hl=cs&amp;amp;vq=%22Santo+Domingo%22&quot;&gt;Strana 312&lt;/a&gt;</desc>
</wpt>
<wpt lat="43.849998" lon="18.379999">
  <ele>0</ele>
  <name>Sarajevo</name>
  <desc>&lt;a href=&quot;http://books.google.com/books?id=BKpZAAAAMAAJ&amp;amp;pg=PA261&amp;amp;hl=cs&amp;amp;vq=%22Sarajevo%22&quot;&gt;Strana 261&lt;/a&gt;&lt;br&gt;After all, one must listen respectfully to the person who shook Babe Ruth&amp;#39;s hand, or heard the shot fired at &lt;b&gt;Sarajevo&lt;/b&gt;, or whose progenitors raised the &lt;b&gt;...&lt;/b&gt;&lt;br&gt;more pages:  &lt;a href=&quot;http://books.google.com/books?id=BKpZAAAAMAAJ&amp;amp;pg=PA261&amp;amp;hl=cs&amp;amp;vq=%22Sarajevo%22&quot;&gt;Strana 261&lt;/a&gt;</desc>
</wpt>
<wpt lat="37.390495" lon="-5.997962">
  <ele>0</ele>
  <name>Seville</name>
  <desc>&lt;a href=&quot;http://books.google.com/books?id=BKpZAAAAMAAJ&amp;amp;pg=PA312&amp;amp;hl=cs&amp;amp;vq=%22Seville%22&quot;&gt;Strana 312&lt;/a&gt;&lt;br&gt;The Spaniards went ashore to inspect it. The expedition&amp;#39;s doctor wrote in a letter to the municipality of &lt;b&gt;Seville&lt;/b&gt;:&lt;br&gt;more pages:  &lt;a href=&quot;http://books.google.com/books?id=BKpZAAAAMAAJ&amp;amp;pg=PA312&amp;amp;hl=cs&amp;amp;vq=%22Seville%22&quot;&gt;Strana 312&lt;/a&gt;</desc>
</wpt>
<wpt lat="25.829999" lon="-108.230003">
  <ele>0</ele>
  <name>Sinaloa</name>
  <desc>&lt;a href=&quot;http://books.google.com/books?id=BKpZAAAAMAAJ&amp;amp;pg=PA390&amp;amp;hl=cs&amp;amp;vq=%22Sinaloa%22&quot;&gt;Strana 390&lt;/a&gt;&lt;br&gt;That autumn Coronado led what remained of his army across the deserts and mountains into &lt;b&gt;Sinaloa&lt;/b&gt; where, at Culiacan, it was disbanded. &lt;b&gt;...&lt;/b&gt;&lt;br&gt;more pages:  &lt;a href=&quot;http://books.google.com/books?id=BKpZAAAAMAAJ&amp;amp;pg=PA390&amp;amp;hl=cs&amp;amp;vq=%22Sinaloa%22&quot;&gt;Strana 390&lt;/a&gt;</desc>
</wpt>
<wpt lat="59.330001" lon="18.069999">
  <ele>0</ele>
  <name>Stockholm</name>
  <desc>&lt;a href=&quot;http://books.google.com/books?id=BKpZAAAAMAAJ&amp;amp;pg=PA445&amp;amp;hl=cs&amp;amp;vq=%22Stockholm%22&quot;&gt;Strana 445&lt;/a&gt;&lt;br&gt;He proposed making a collection of antiquities which could be displayed in &lt;b&gt;Stockholm&lt;/b&gt;, and he was anxious to get started. &lt;b&gt;...&lt;/b&gt;&lt;br&gt;more pages:  &lt;a href=&quot;http://books.google.com/books?id=BKpZAAAAMAAJ&amp;amp;pg=PA445&amp;amp;hl=cs&amp;amp;vq=%22Stockholm%22&quot;&gt;Strana 445&lt;/a&gt;</desc>
</wpt>
<wpt lat="43.048056" lon="-76.147778">
  <ele>0</ele>
  <name>Syracuse</name>
  <desc>&lt;a href=&quot;http://books.google.com/books?id=BKpZAAAAMAAJ&amp;amp;pg=PA262&amp;amp;hl=cs&amp;amp;vq=%22Syracuse%22&quot;&gt;Strana 262&lt;/a&gt;&lt;br&gt;That is, Plato&amp;#39;s city may have been fictional, or derived from what he had heard of Carthage or Babylon or &lt;b&gt;Syracuse&lt;/b&gt;, while the cataclysm he described &lt;b&gt;...&lt;/b&gt;&lt;br&gt;more pages:  &lt;a href=&quot;http://books.google.com/books?id=BKpZAAAAMAAJ&amp;amp;pg=PA262&amp;amp;hl=cs&amp;amp;vq=%22Syracuse%22&quot;&gt;Strana 262&lt;/a&gt;</desc>
</wpt>
<wpt lat="19.75" lon="-99.93">
  <ele>0</ele>
  <name>Tenochtitlan</name>
  <desc>&lt;a href=&quot;http://books.google.com/books?id=BKpZAAAAMAAJ&amp;amp;pg=PA348&amp;amp;hl=cs&amp;amp;vq=%22Tenochtitlan%22&quot;&gt;Strana 348&lt;/a&gt;&lt;br&gt;Nothing comparable to what Cortes had earlier found at &lt;b&gt;Tenochtitlan&lt;/b&gt;, but by force or by trade he did pick up a number of high-carat gold pins, &lt;b&gt;...&lt;/b&gt;&lt;br&gt;more pages:  &lt;a href=&quot;http://books.google.com/books?id=BKpZAAAAMAAJ&amp;amp;pg=PA348&amp;amp;hl=cs&amp;amp;vq=%22Tenochtitlan%22&quot;&gt;Strana 348&lt;/a&gt;</desc>
</wpt>
<wpt lat="4.469999" lon="-74.639999">
  <ele>0</ele>
  <name>Tocaima</name>
  <desc>&lt;a href=&quot;http://books.google.com/books?id=BKpZAAAAMAAJ&amp;amp;pg=PA355&amp;amp;hl=cs&amp;amp;vq=%22Tocaima%22&quot;&gt;Strana 355&lt;/a&gt;&lt;br&gt;He was afflicted with leprosy during his last years, we are told by Fl6rez de Ocariz, and spent much time in the desert near &lt;b&gt;Tocaima&lt;/b&gt; where there was a &lt;b&gt;...&lt;/b&gt;&lt;br&gt;more pages:  &lt;a href=&quot;http://books.google.com/books?id=BKpZAAAAMAAJ&amp;amp;pg=PA355&amp;amp;hl=cs&amp;amp;vq=%22Tocaima%22&quot;&gt;Strana 355&lt;/a&gt;</desc>
</wpt>
<wpt lat="63.439998" lon="10.399999">
  <ele>0</ele>
  <name>Trondheim</name>
  <desc>&lt;a href=&quot;http://books.google.com/books?id=BKpZAAAAMAAJ&amp;amp;pg=PA228&amp;amp;hl=cs&amp;amp;vq=%22Trondheim%22&quot;&gt;Strana 228&lt;/a&gt;&lt;br&gt;Some authorities believe Pytheas reached the vicinity of &lt;b&gt;Trondheim&lt;/b&gt;. As for Iceland and Greenland, it is tempting to think of a Mediterranean ship &lt;b&gt;...&lt;/b&gt;&lt;br&gt;more pages:  &lt;a href=&quot;http://books.google.com/books?id=BKpZAAAAMAAJ&amp;amp;pg=PA228&amp;amp;hl=cs&amp;amp;vq=%22Trondheim%22&quot;&gt;Strana 228&lt;/a&gt;</desc>
</wpt>
<wpt lat="5.55" lon="-73.370002">
  <ele>0</ele>
  <name>Tunja</name>
  <desc>&lt;a href=&quot;http://books.google.com/books?id=BKpZAAAAMAAJ&amp;amp;pg=PA351&amp;amp;hl=cs&amp;amp;vq=%22Tunja%22&quot;&gt;Strana 351&lt;/a&gt;&lt;br&gt;The city of &lt;b&gt;Tunja&lt;/b&gt; quickly surrendered. It was late afternoon when the Spaniards arrived. Now, after the conquest, they rushed around by torchlight &lt;b&gt;...&lt;/b&gt;&lt;br&gt;more pages:  &lt;a href=&quot;http://books.google.com/books?id=BKpZAAAAMAAJ&amp;amp;pg=PA351&amp;amp;hl=cs&amp;amp;vq=%22Tunja%22&quot;&gt;Strana 351&lt;/a&gt;</desc>
</wpt>
<wpt lat="50.972456" lon="0.097117">
  <ele>0</ele>
  <name>Uckfield</name>
  <desc>&lt;a href=&quot;http://books.google.com/books?id=BKpZAAAAMAAJ&amp;amp;pg=PA17&amp;amp;hl=cs&amp;amp;vq=%22Uckfield%22&quot;&gt;Strana 17&lt;/a&gt;&lt;br&gt;Charles Dawson, a rotund &lt;b&gt;Uckfield&lt;/b&gt; lawyer and amateur antiquarian who discovered the famous skull. He told his story in 1912 at a meeting of the London &lt;b&gt;...&lt;/b&gt;&lt;br&gt;more pages:  &lt;a href=&quot;http://books.google.com/books?id=BKpZAAAAMAAJ&amp;amp;pg=PA17&amp;amp;hl=cs&amp;amp;vq=%22Uckfield%22&quot;&gt;Strana 17&lt;/a&gt;</desc>
</wpt>
<wpt lat="39.470218" lon="-0.376872">
  <ele>0</ele>
  <name>Valence</name>
  <desc>&lt;a href=&quot;http://books.google.com/books?id=BKpZAAAAMAAJ&amp;amp;pg=PA273&amp;amp;hl=cs&amp;amp;vq=%22Valence%22&quot;&gt;Strana 273&lt;/a&gt;&lt;br&gt;Stephen chose a path southward through the rich heart of France, across the Loire to the Rhone at Lyons, through &lt;b&gt;Valence&lt;/b&gt; and Avignon to Marseilles. &lt;b&gt;...&lt;/b&gt;&lt;br&gt;more pages:  &lt;a href=&quot;http://books.google.com/books?id=BKpZAAAAMAAJ&amp;amp;pg=PA273&amp;amp;hl=cs&amp;amp;vq=%22Valence%22&quot;&gt;Strana 273&lt;/a&gt;</desc>
</wpt>
<wpt lat="41.652948" lon="-4.728506">
  <ele>0</ele>
  <name>Valladolid</name>
  <desc>&lt;a href=&quot;http://books.google.com/books?id=BKpZAAAAMAAJ&amp;amp;pg=PA354&amp;amp;hl=cs&amp;amp;vq=%22Valladolid%22&quot;&gt;Strana 354&lt;/a&gt;&lt;br&gt;He died in &lt;b&gt;Valladolid&lt;/b&gt; in 1541, vainly waiting for the emperor to help him out. Belalcdzar at first had better luck. He returned to the New World as &lt;b&gt;...&lt;/b&gt;&lt;br&gt;more pages:  &lt;a href=&quot;http://books.google.com/books?id=BKpZAAAAMAAJ&amp;amp;pg=PA354&amp;amp;hl=cs&amp;amp;vq=%22Valladolid%22&quot;&gt;Strana 354&lt;/a&gt;</desc>
</wpt>
<wpt lat="45.434491" lon="12.338397">
  <ele>0</ele>
  <name>Venice</name>
  <desc>&lt;a href=&quot;http://books.google.com/books?id=BKpZAAAAMAAJ&amp;amp;pg=PA315&amp;amp;hl=cs&amp;amp;vq=%22Venice%22&quot;&gt;Strana 315&lt;/a&gt;&lt;br&gt;I asked how he could be sure it was Venetian glass, and he replied that he knew those beads when he saw them because he used to live in &lt;b&gt;Venice&lt;/b&gt;. &lt;b&gt;...&lt;/b&gt;&lt;br&gt;more pages:  &lt;a href=&quot;http://books.google.com/books?id=BKpZAAAAMAAJ&amp;amp;pg=PA315&amp;amp;hl=cs&amp;amp;vq=%22Venice%22&quot;&gt;Strana 315&lt;/a&gt;</desc>
</wpt>
<wpt lat="-17.93" lon="25.84">
  <ele>0</ele>
  <name>Victoria Falls</name>
  <desc>&lt;a href=&quot;http://books.google.com/books?id=BKpZAAAAMAAJ&amp;amp;pg=PA28&amp;amp;hl=cs&amp;amp;vq=%22Victoria+Falls%22&quot;&gt;Strana 28&lt;/a&gt;&lt;br&gt;Six years later a scientific congress met at the town of Livingstone near &lt;b&gt;Victoria Falls&lt;/b&gt;. Dart was allotted twenty minutes, which meant he scarcely &lt;b&gt;...&lt;/b&gt;&lt;br&gt;more pages:  &lt;a href=&quot;http://books.google.com/books?id=BKpZAAAAMAAJ&amp;amp;pg=PA28&amp;amp;hl=cs&amp;amp;vq=%22Victoria+Falls%22&quot;&gt;Strana 28&lt;/a&gt;</desc>
</wpt>
<wpt lat="48.220001" lon="16.37">
  <ele>0</ele>
  <name>Vienna</name>
  <desc>&lt;a href=&quot;http://books.google.com/books?id=BKpZAAAAMAAJ&amp;amp;pg=PA420&amp;amp;hl=cs&amp;amp;vq=%22Vienna%22&quot;&gt;Strana 420&lt;/a&gt;&lt;br&gt;Somehow he escaped and popped up in &lt;b&gt;Vienna&lt;/b&gt; where he dazzled Emperor Leopold.&lt;br&gt;more pages:  &lt;a href=&quot;http://books.google.com/books?id=BKpZAAAAMAAJ&amp;amp;pg=PA420&amp;amp;hl=cs&amp;amp;vq=%22Vienna%22&quot;&gt;Strana 420&lt;/a&gt;</desc>
</wpt>
<wpt lat="42.231355" lon="-8.712446">
  <ele>0</ele>
  <name>Vigo</name>
  <desc>&lt;a href=&quot;http://books.google.com/books?id=BKpZAAAAMAAJ&amp;amp;pg=PA402&amp;amp;hl=cs&amp;amp;vq=%22Vigo%22&quot;&gt;Strana 402&lt;/a&gt;&lt;br&gt;The Spanish commander therefore changed course and arrived safely at &lt;b&gt;Vigo&lt;/b&gt; in northern Spain. But here the bureaucrats took charge. &lt;b&gt;...&lt;/b&gt;&lt;br&gt;more pages:  &lt;a href=&quot;http://books.google.com/books?id=BKpZAAAAMAAJ&amp;amp;pg=PA402&amp;amp;hl=cs&amp;amp;vq=%22Vigo%22&quot;&gt;Strana 402&lt;/a&gt;</desc>
</wpt>
<wpt lat="46.619998" lon="13.85">
  <ele>0</ele>
  <name>Villach</name>
  <desc>&lt;a href=&quot;http://books.google.com/books?id=BKpZAAAAMAAJ&amp;amp;pg=PA432&amp;amp;hl=cs&amp;amp;vq=%22Villach%22&quot;&gt;Strana 432&lt;/a&gt;&lt;br&gt;returned to &lt;b&gt;Villach&lt;/b&gt; to claim the estate but the townspeople did not think he was a reputable successor. He departed meekly, without his inheritance. &lt;b&gt;...&lt;/b&gt;&lt;br&gt;more pages:  &lt;a href=&quot;http://books.google.com/books?id=BKpZAAAAMAAJ&amp;amp;pg=PA432&amp;amp;hl=cs&amp;amp;vq=%22Villach%22&quot;&gt;Strana 432&lt;/a&gt;</desc>
</wpt>
<wpt lat="35.069444" lon="-108.847778">
  <ele>0</ele>
  <name>Zuni, New Mexico</name>
  <desc>&lt;a href=&quot;http://books.google.com/books?id=BKpZAAAAMAAJ&amp;amp;pg=PA187&amp;amp;hl=cs&amp;amp;vq=%22Zuni,+New+Mexico%22&quot;&gt;Strana 187&lt;/a&gt;&lt;br&gt;On a cliff near &lt;b&gt;Zuni, New Mexico&lt;/b&gt;, is a pictograph showing a cross with a crescent moon just beneath it to the right. &lt;b&gt;...&lt;/b&gt;&lt;br&gt;more pages:  &lt;a href=&quot;http://books.google.com/books?id=BKpZAAAAMAAJ&amp;amp;pg=PA187&amp;amp;hl=cs&amp;amp;vq=%22Zuni,+New+Mexico%22&quot;&gt;Strana 187&lt;/a&gt;</desc>
</wpt>
</gpx>
